1 40903U 15049E   20259.11507205  .00001392  00000-0  33049-4 0  9992
2 40903  97.2792 308.1015 0011472 302.5720 142.0707 15.43400405280306